SHIYAN-30 04            
1 68140U 26048B   26079.41469212  .00002158  00000+0  21312-3 0  9999
2 68140  34.9914  79.7807 0002474 297.4914  62.5539 14.91690424  1104
STARLINK-36604          
1 68142U 26049A   26078.57838178 -.00601426  12954-3 -10855-2 0  9998
2 68142  97.2797  98.1391 0000555  65.4234 294.7104 16.01563866   968
STARLINK-36995          
1 68143U 26049B   26078.26577997 -.00531426  10413-3 -90105-3 0  9991
2 68143  97.2800  97.7985 0000959  13.3742 346.7563 16.02629136   918
STARLINK-37020          
1 68144U 26049C   26078.51432062  .00978873  50884-3  15014-2 0  9993
2 68144  97.2794  98.0724 0000467 166.1555 193.9739 16.04472428   952
STARLINK-36244          
1 68145U 26049D   26078.01410660 -.00404794  63915-4 -62437-3 0  9999
2 68145  97.2798  97.5283 0000395  95.7237 264.4089 16.04211622   875
STARLINK-36980          
1 68146U 26049E   26078.57630927 -.00620452  13836-3 -10788-2 0  9999
2 68146  97.2792  98.1417 0000469  81.7263 278.4070 16.02210843   969
STARLINK-37055          
1 68147U 26049F   26078.51507610 -.00358165  49580-4 -62842-3 0  9990
2 68147  97.2798  98.0710 0002763  38.6438 321.5038 16.02010555   956
STARLINK-36981          
1 68148U 26049G   26078.51312866 -.04741621  76603-2 -87998-2 0  9997
2 68148  97.2791  98.0740 0009222 123.9534 236.2623 16.00484791   952
STARLINK-36992          
1 68149U 26049H   26078.51297425  .00562120  14895-3  90936-3 0  9993
2 68149  97.2794  98.0748 0005892  16.2793 343.8675 16.03449672   958
STARLINK-37060          
1 68150U 26049J   26078.51268954  .00514433  12358-3  83559-3 0  9999
2 68150  97.2790  98.0753 0003860 339.2818  20.8305 16.03397341   958
STARLINK-37073          
1 68151U 26049K   26078.51234559 -.00494902  91744-4 -81365-3 0  9994
2 68151  97.2790  98.0750 0000583 352.5845   7.5426 16.03149567   954
